{
  "type": "FeatureCollection",
  "features": [
    {
      "type": "Feature",
      "properties": {
        "norad_id": 33805,
        "name": "COSMOS 2251 DEB",
        "group": "cosmos-2251-debris",
        "lat": -58.36186140370747,
        "lon": -102.34292190377025,
        "alt_km": 748.7978427158496,
        "timestamp": "2025-12-26T09:30:54.032486+00:00",
        "meta_object_name": "COSMOS 2251 DEB",
        "meta_object_id": "1993-036AW",
        "meta_epoch": "2025-12-26T03:12:55.217088",
        "meta_mean_motion": 14.5788448,
        "meta_eccentricity": 0.0059872,
        "meta_inclination": 74.0313,
        "meta_ra_of_asc_node": 285.8503,
        "meta_arg_of_pericenter": 110.9069,
        "meta_mean_anomaly": 249.8519,
        "meta_ephemeris_type": 0,
        "meta_classification_type": "U",
        "meta_norad_cat_id": 33805,
        "meta_element_set_no": 999,
        "meta_rev_at_epoch": 89422,
        "meta_bstar": 0.00023344,
        "meta_mean_motion_dot": 1.066e-05,
        "meta_mean_motion_ddot": 0,
        "tle_line1": "1 33805U 93036AW  25360.13397242  .00001066  00000+0  23344-3 0  9998",
        "tle_line2": "2 33805  74.0313 285.8503 0059872 110.9069 249.8519 14.57884480894229"
      },
      "geometry": {
        "type": "Point",
        "coordinates": [
          -102.34292190377025,
          -58.36186140370747
        ]
      }
    },
    {
      "type": "Feature",
      "properties": {
        "norad_id": 33811,
        "name": "COSMOS 2251 DEB",
        "group": "cosmos-2251-debris",
        "lat": -15.40709849703289,
        "lon": -90.25847969912337,
        "alt_km": 532.6519917171081,
        "timestamp": "2025-12-26T09:30:54.032502+00:00",
        "meta_object_name": "COSMOS 2251 DEB",
        "meta_object_id": "1993-036BC",
        "meta_epoch": "2025-12-25T21:06:40.199616",
        "meta_mean_motion": 15.05656727,
        "meta_eccentricity": 0.00309872,
        "meta_inclination": 73.8379,
        "meta_ra_of_asc_node": 275.3975,
        "meta_arg_of_pericenter": 353.7396,
        "meta_mean_anomaly": 70.1491,
        "meta_ephemeris_type": 0,
        "meta_classification_type": "U",
        "meta_norad_cat_id": 33811,
        "meta_element_set_no": 999,
        "meta_rev_at_epoch": 90216,
        "meta_bstar": 0.0011136153,
        "meta_mean_motion_dot": 0.00016254,
        "meta_mean_motion_ddot": 0,
        "tle_line1": "1 33811U 93036BC  25359.87963194  .00016254  00000+0  11136-2 0  9999",
        "tle_line2": "2 33811  73.8379 275.3975 0030987 353.7396  70.1491 15.05656727902160"
      },
      "geometry": {
        "type": "Point",
        "coordinates": [
          -90.25847969912337,
          -15.40709849703289
        ]
      }
    },
    {
      "type": "Feature",
      "properties": {
        "norad_id": 33815,
        "name": "COSMOS 2251 DEB",
        "group": "cosmos-2251-debris",
        "lat": 37.3449596319724,
        "lon": 160.50685827781717,
        "alt_km": 495.8636615712803,
        "timestamp": "2025-12-26T09:30:54.032514+00:00",
        "meta_object_name": "COSMOS 2251 DEB",
        "meta_object_id": "1993-036BG",
        "meta_epoch": "2025-12-25T19:41:06.838656",
        "meta_mean_motion": 15.21778143,
        "meta_eccentricity": 0.00040974,
        "meta_inclination": 73.9516,
        "meta_ra_of_asc_node": 149.0355,
        "meta_arg_of_pericenter": 331.2535,
        "meta_mean_anomaly": 152.2053,
        "meta_ephemeris_type": 0,
        "meta_classification_type": "U",
        "meta_norad_cat_id": 33815,
        "meta_element_set_no": 999,
        "meta_rev_at_epoch": 88569,
        "meta_bstar": 0.007771607,
        "meta_mean_motion_dot": 0.00180807,
        "meta_mean_motion_ddot": 0,
        "tle_line1": "1 33815U 93036BG  25359.82021804  .00180807  00000+0  77716-2 0  9993",
        "tle_line2": "2 33815  73.9516 149.0355 0004097 331.2535 152.2053 15.21778143885695"
      },
      "geometry": {
        "type": "Point",
        "coordinates": [
          160.50685827781717,
          37.3449596319724
        ]
      }
    },
    {
      "type": "Feature",
      "properties": {
        "norad_id": 33816,
        "name": "COSMOS 2251 DEB",
        "group": "cosmos-2251-debris",
        "lat": -41.21955703209988,
        "lon": 67.58979671104434,
        "alt_km": 1099.8296786937235,
        "timestamp": "2025-12-26T09:30:54.032525+00:00",
        "meta_object_name": "COSMOS 2251 DEB",
        "meta_object_id": "1993-036BH",
        "meta_epoch": "2025-12-25T14:36:56.196000",
        "meta_mean_motion": 13.81797239,
        "meta_eccentricity": 0.0264117,
        "meta_inclination": 73.8953,
        "meta_ra_of_asc_node": 83.5844,
        "meta_arg_of_pericenter": 93.9633,
        "meta_mean_anomaly": 269.1724,
        "meta_ephemeris_type": 0,
        "meta_classification_type": "U",
        "meta_norad_cat_id": 33816,
        "meta_element_set_no": 999,
        "meta_rev_at_epoch": 84851,
        "meta_bstar": 0.00036192,
        "meta_mean_motion_dot": 4.84e-06,
        "meta_mean_motion_ddot": 0,
        "tle_line1": "1 33816U 93036BH  25359.60898375  .00000484  00000+0  36192-3 0  9991",
        "tle_line2": "2 33816  73.8953  83.5844 0264117  93.9633 269.1724 13.81797239848511"
      },
      "geometry": {
        "type": "Point",
        "coordinates": [
          67.58979671104434,
          -41.21955703209988
        ]
      }
    },
    {
      "type": "Feature",
      "properties": {
        "norad_id": 33818,
        "name": "COSMOS 2251 DEB",
        "group": "cosmos-2251-debris",
        "lat": -45.965309807694936,
        "lon": 120.82290353671004,
        "alt_km": 547.5727292107276,
        "timestamp": "2025-12-26T09:30:54.032536+00:00",
        "meta_object_name": "COSMOS 2251 DEB",
        "meta_object_id": "1993-036BK",
        "meta_epoch": "2025-12-26T02:19:10.254144",
        "meta_mean_motion": 15.13620825,
        "meta_eccentricity": 0.0023762,
        "meta_inclination": 74.0799,
        "meta_ra_of_asc_node": 138.6139,
        "meta_arg_of_pericenter": 120.4924,
        "meta_mean_anomaly": 358.2683,
        "meta_ephemeris_type": 0,
        "meta_classification_type": "U",
        "meta_norad_cat_id": 33818,
        "meta_element_set_no": 999,
        "meta_rev_at_epoch": 90064,
        "meta_bstar": 0.0025679,
        "meta_mean_motion_dot": 0.00046718,
        "meta_mean_motion_ddot": 0,
        "tle_line1": "1 33818U 93036BK  25360.09664646  .00046718  00000+0  25679-2 0  9997",
        "tle_line2": "2 33818  74.0799 138.6139 0023762 120.4924 358.2683 15.13620825900641"
      },
      "geometry": {
        "type": "Point",
        "coordinates": [
          120.82290353671004,
          -45.965309807694936
        ]
      }
    },
    {
      "type": "Feature",
      "properties": {
        "norad_id": 33819,
        "name": "COSMOS 2251 DEB",
        "group": "cosmos-2251-debris",
        "lat": 62.885958949387444,
        "lon": -141.22670257554347,
        "alt_km": 719.6243659100064,
        "timestamp": "2025-12-26T09:30:54.032547+00:00",
        "meta_object_name": "COSMOS 2251 DEB",
        "meta_object_id": "1993-036BL",
        "meta_epoch": "2025-12-25T23:51:31.002048",
        "meta_mean_motion": 14.32263602,
        "meta_eccentricity": 0.0089565,
        "meta_inclination": 74.1772,
        "meta_ra_of_asc_node": 185.8703,
        "meta_arg_of_pericenter": 43.1942,
        "meta_mean_anomaly": 110.3702,
        "meta_ephemeris_type": 0,
        "meta_classification_type": "U",
        "meta_norad_cat_id": 33819,
        "meta_element_set_no": 999,
        "meta_rev_at_epoch": 87685,
        "meta_bstar": 0.0004937,
        "meta_mean_motion_dot": 1.368e-05,
        "meta_mean_motion_ddot": 0,
        "tle_line1": "1 33819U 93036BL  25359.99410882  .00001368  00000+0  49370-3 0  9993",
        "tle_line2": "2 33819  74.1772 185.8703 0089565  43.1942 110.3702 14.32263602876859"
      },
      "geometry": {
        "type": "Point",
        "coordinates": [
          -141.22670257554347,
          62.885958949387444
        ]
      }
    },
    {
      "type": "Feature",
      "properties": {
        "norad_id": 33821,
        "name": "COSMOS 2251 DEB",
        "group": "cosmos-2251-debris",
        "lat": 15.543035649274644,
        "lon": 118.51730384721901,
        "alt_km": 507.71289768699444,
        "timestamp": "2025-12-26T09:30:54.032558+00:00",
        "meta_object_name": "COSMOS 2251 DEB",
        "meta_object_id": "1993-036BN",
        "meta_epoch": "2025-12-25T17:42:39.732768",
        "meta_mean_motion": 15.26124153,
        "meta_eccentricity": 0.00492072,
        "meta_inclination": 74.0304,
        "meta_ra_of_asc_node": 115.3421,
        "meta_arg_of_pericenter": 144.3088,
        "meta_mean_anomaly": 216.142,
        "meta_ephemeris_type": 0,
        "meta_classification_type": "U",
        "meta_norad_cat_id": 33821,
        "meta_element_set_no": 999,
        "meta_rev_at_epoch": 75199,
        "meta_bstar": 0.0012899322,
        "meta_mean_motion_dot": 0.00034606,
        "meta_mean_motion_ddot": 0,
        "tle_line1": "1 33821U 93036BN  25359.73795987  .00034606  00000+0  12899-2 0  9996",
        "tle_line2": "2 33821  74.0304 115.3421 0049207 144.3088 216.1420 15.26124153751991"
      },
      "geometry": {
        "type": "Point",
        "coordinates": [
          118.51730384721901,
          15.543035649274644
        ]
      }
    }
  ]
}